TWILIGHT H              
1 67370U 26004H   26037.24597313  .00007311  00000+0  81240-3 0  9996
2 67370  97.7959  37.9563 0006215 204.7023 155.3896 14.87459574  3820
TWILIGHT J              
1 67371U 26004J   26037.23977829  .00008532  00000+0  93735-3 0  9998
2 67371  97.8001  37.9719 0005599 187.4323 172.6812 14.87878850  3829
ICEYE-X63               
1 67372U 26004K   26037.23534110  .00003127  00000+0  34677-3 0  9996
2 67372  97.7980  37.9728 0003883 180.8257 179.2954 14.87979946  3820
ICEYE-X64               
1 67373U 26004L   26037.24211633  .00002989  00000+0  33488-3 0  9994
2 67373  97.7993  37.9674 0005393 193.9526 166.1542 14.87583186  3822
AETHER-3                
1 67374U 26004M   26037.23636220  .00002579  00000+0  28734-3 0  9990
2 67374  97.7978  37.9702 0004161 181.8862 178.2339 14.87941061  3827
AETHER-4                
1 67375U 26004N   26037.23592051  .00002679  00000+0  29810-3 0  9991
2 67375  97.8015  37.9808 0004758 177.7556 182.3682 14.87961989  3822
AETHER-5                
1 67376U 26004P   26037.23849109  .00003442  00000+0  38269-3 0  9998
2 67376  97.8011  37.9763 0005100 183.9026 176.2152 14.87802806  3828
AETHER-6                
1 67377U 26004Q   26036.63062798 -.00251653  00000+0 -28936-1 0  9992
2 67377  97.8013  37.3851 0004629 129.8525 230.3099 14.87287400  3729
AETHER-7                
1 67378U 26004R   26037.23974171  .00003374  00000+0  37585-3 0  9992
2 67378  97.7986  37.9678 0004458 192.1004 168.0106 14.87734301  3819
AETHER-8                
1 67379U 26004S   26037.23955616  .00002689  00000+0  30070-3 0  9996
2 67379  97.7990  37.9700 0004970 189.4318 170.6806 14.87744009  3819
AETHER-9                
1 67380U 26004T   26037.23796354  .00003582  00000+0  39762-3 0  9990
2 67380  97.7982  37.9700 0004510 187.5668 172.5481 14.87843018  3819
AETHER-10               
1 67381U 26004U   26037.10137301 -.00238932  00000+0 -27452-1 0  9990
2 67381  97.8017  37.8505 0003166 142.3540 217.7899 14.87251054  3791
