CCSDS_OMM_VERS = 2.0
CREATION_DATE  = 
ORIGINATOR     = 

OBJECT_NAME    = TWILIGHT H
OBJECT_ID      = 2026-004H
CENTER_NAME    = EARTH
REF_FRAME      = TEME
TIME_SYSTEM    = UTC
MEAN_ELEMENT_THEORY = SGP/SGP4

EPOCH          = 2026-02-06T05:54:12.078432
MEAN_MOTION    = 14.87459574
ECCENTRICITY   = .00062152
INCLINATION    = 97.7959
RA_OF_ASC_NODE = 37.9563
ARG_OF_PERICENTER = 204.7023
MEAN_ANOMALY   = 155.3896

EPHEMERIS_TYPE = 0
CLASSIFICATION_TYPE = U
NORAD_CAT_ID   = 67370
ELEMENT_SET_NO = 999
REV_AT_EPOCH   = 382
BSTAR          = .81239536E-3
MEAN_MOTION_DOT = .7311E-4
MEAN_MOTION_DDOT = 0

CCSDS_OMM_VERS = 2.0
CREATION_DATE  = 
ORIGINATOR     = 

OBJECT_NAME    = TWILIGHT J
OBJECT_ID      = 2026-004J
CENTER_NAME    = EARTH
REF_FRAME      = TEME
TIME_SYSTEM    = UTC
MEAN_ELEMENT_THEORY = SGP/SGP4

EPOCH          = 2026-02-06T05:45:16.844256
MEAN_MOTION    = 14.87878850
ECCENTRICITY   = .00055993
INCLINATION    = 97.8001
RA_OF_ASC_NODE = 37.9719
ARG_OF_PERICENTER = 187.4323
MEAN_ANOMALY   = 172.6812

EPHEMERIS_TYPE = 0
CLASSIFICATION_TYPE = U
NORAD_CAT_ID   = 67371
ELEMENT_SET_NO = 999
REV_AT_EPOCH   = 382
BSTAR          = .93734515E-3
MEAN_MOTION_DOT = .8532E-4
MEAN_MOTION_DDOT = 0

CCSDS_OMM_VERS = 2.0
CREATION_DATE  = 
ORIGINATOR     = 

OBJECT_NAME    = ICEYE-X63
OBJECT_ID      = 2026-004K
CENTER_NAME    = EARTH
REF_FRAME      = TEME
TIME_SYSTEM    = UTC
MEAN_ELEMENT_THEORY = SGP/SGP4

EPOCH          = 2026-02-06T05:38:53.471040
MEAN_MOTION    = 14.87979946
ECCENTRICITY   = .00038832
INCLINATION    = 97.7980
RA_OF_ASC_NODE = 37.9728
ARG_OF_PERICENTER = 180.8257
MEAN_ANOMALY   = 179.2954

EPHEMERIS_TYPE = 0
CLASSIFICATION_TYPE = U
NORAD_CAT_ID   = 67372
ELEMENT_SET_NO = 999
REV_AT_EPOCH   = 382
BSTAR          = .34677486E-3
MEAN_MOTION_DOT = .3127E-4
MEAN_MOTION_DDOT = 0

CCSDS_OMM_VERS = 2.0
CREATION_DATE  = 
ORIGINATOR     = 

OBJECT_NAME    = ICEYE-X64
OBJECT_ID      = 2026-004L
CENTER_NAME    = EARTH
REF_FRAME      = TEME
TIME_SYSTEM    = UTC
MEAN_ELEMENT_THEORY = SGP/SGP4

EPOCH          = 2026-02-06T05:48:38.850912
MEAN_MOTION    = 14.87583186
ECCENTRICITY   = .00053932
INCLINATION    = 97.7993
RA_OF_ASC_NODE = 37.9674
ARG_OF_PERICENTER = 193.9526
MEAN_ANOMALY   = 166.1542

EPHEMERIS_TYPE = 0
CLASSIFICATION_TYPE = U
NORAD_CAT_ID   = 67373
ELEMENT_SET_NO = 999
REV_AT_EPOCH   = 382
BSTAR          = .33488099E-3
MEAN_MOTION_DOT = .2989E-4
MEAN_MOTION_DDOT = 0

CCSDS_OMM_VERS = 2.0
CREATION_DATE  = 
ORIGINATOR     = 

OBJECT_NAME    = AETHER-3
OBJECT_ID      = 2026-004M
CENTER_NAME    = EARTH
REF_FRAME      = TEME
TIME_SYSTEM    = UTC
MEAN_ELEMENT_THEORY = SGP/SGP4

EPOCH          = 2026-02-06T05:40:21.694080
MEAN_MOTION    = 14.87941061
ECCENTRICITY   = .00041619
INCLINATION    = 97.7978
RA_OF_ASC_NODE = 37.9702
ARG_OF_PERICENTER = 181.8862
MEAN_ANOMALY   = 178.2339

EPHEMERIS_TYPE = 0
CLASSIFICATION_TYPE = U
NORAD_CAT_ID   = 67374
ELEMENT_SET_NO = 999
REV_AT_EPOCH   = 382
BSTAR          = .28734454E-3
MEAN_MOTION_DOT = .2579E-4
MEAN_MOTION_DDOT = 0

CCSDS_OMM_VERS = 2.0
CREATION_DATE  = 
ORIGINATOR     = 

OBJECT_NAME    = AETHER-4
OBJECT_ID      = 2026-004N
CENTER_NAME    = EARTH
REF_FRAME      = TEME
TIME_SYSTEM    = UTC
MEAN_ELEMENT_THEORY = SGP/SGP4

EPOCH          = 2026-02-06T05:39:43.532064
MEAN_MOTION    = 14.87961989
ECCENTRICITY   = .00047582
INCLINATION    = 97.8015
RA_OF_ASC_NODE = 37.9808
ARG_OF_PERICENTER = 177.7556
MEAN_ANOMALY   = 182.3682

EPHEMERIS_TYPE = 0
CLASSIFICATION_TYPE = U
NORAD_CAT_ID   = 67375
ELEMENT_SET_NO = 999
REV_AT_EPOCH   = 382
BSTAR          = .29809693E-3
MEAN_MOTION_DOT = .2679E-4
MEAN_MOTION_DDOT = 0

CCSDS_OMM_VERS = 2.0
CREATION_DATE  = 
ORIGINATOR     = 

OBJECT_NAME    = AETHER-5
OBJECT_ID      = 2026-004P
CENTER_NAME    = EARTH
REF_FRAME      = TEME
TIME_SYSTEM    = UTC
MEAN_ELEMENT_THEORY = SGP/SGP4

EPOCH          = 2026-02-06T05:43:25.630176
MEAN_MOTION    = 14.87802806
ECCENTRICITY   = .00051001
INCLINATION    = 97.8011
RA_OF_ASC_NODE = 37.9763
ARG_OF_PERICENTER = 183.9026
MEAN_ANOMALY   = 176.2152

EPHEMERIS_TYPE = 0
CLASSIFICATION_TYPE = U
NORAD_CAT_ID   = 67376
ELEMENT_SET_NO = 999
REV_AT_EPOCH   = 382
BSTAR          = .3826911E-3
MEAN_MOTION_DOT = .3442E-4
MEAN_MOTION_DDOT = 0

CCSDS_OMM_VERS = 2.0
CREATION_DATE  = 
ORIGINATOR     = 

OBJECT_NAME    = AETHER-6
OBJECT_ID      = 2026-004Q
CENTER_NAME    = EARTH
REF_FRAME      = TEME
TIME_SYSTEM    = UTC
MEAN_ELEMENT_THEORY = SGP/SGP4

EPOCH          = 2026-02-05T15:08:06.257472
MEAN_MOTION    = 14.87287400
ECCENTRICITY   = .0004629
INCLINATION    = 97.8013
RA_OF_ASC_NODE = 37.3851
ARG_OF_PERICENTER = 129.8525
MEAN_ANOMALY   = 230.3099

EPHEMERIS_TYPE = 0
CLASSIFICATION_TYPE = U
NORAD_CAT_ID   = 67377
ELEMENT_SET_NO = 999
REV_AT_EPOCH   = 372
BSTAR          = -.28936E-1
MEAN_MOTION_DOT = -.251653E-2
MEAN_MOTION_DDOT = 0

CCSDS_OMM_VERS = 2.0
CREATION_DATE  = 
ORIGINATOR     = 

OBJECT_NAME    = AETHER-7
OBJECT_ID      = 2026-004R
CENTER_NAME    = EARTH
REF_FRAME      = TEME
TIME_SYSTEM    = UTC
MEAN_ELEMENT_THEORY = SGP/SGP4

EPOCH          = 2026-02-06T05:45:13.683744
MEAN_MOTION    = 14.87734301
ECCENTRICITY   = .00044584
INCLINATION    = 97.7986
RA_OF_ASC_NODE = 37.9678
ARG_OF_PERICENTER = 192.1004
MEAN_ANOMALY   = 168.0106

EPHEMERIS_TYPE = 0
CLASSIFICATION_TYPE = U
NORAD_CAT_ID   = 67378
ELEMENT_SET_NO = 999
REV_AT_EPOCH   = 381
BSTAR          = .37585022E-3
MEAN_MOTION_DOT = .3374E-4
MEAN_MOTION_DDOT = 0

CCSDS_OMM_VERS = 2.0
CREATION_DATE  = 
ORIGINATOR     = 

OBJECT_NAME    = AETHER-8
OBJECT_ID      = 2026-004S
CENTER_NAME    = EARTH
REF_FRAME      = TEME
TIME_SYSTEM    = UTC
MEAN_ELEMENT_THEORY = SGP/SGP4

EPOCH          = 2026-02-06T05:44:57.652224
MEAN_MOTION    = 14.87744009
ECCENTRICITY   = .00049704
INCLINATION    = 97.7990
RA_OF_ASC_NODE = 37.9700
ARG_OF_PERICENTER = 189.4318
MEAN_ANOMALY   = 170.6806

EPHEMERIS_TYPE = 0
CLASSIFICATION_TYPE = U
NORAD_CAT_ID   = 67379
ELEMENT_SET_NO = 999
REV_AT_EPOCH   = 381
BSTAR          = .30069517E-3
MEAN_MOTION_DOT = .2689E-4
MEAN_MOTION_DDOT = 0

CCSDS_OMM_VERS = 2.0
CREATION_DATE  = 
ORIGINATOR     = 

OBJECT_NAME    = AETHER-9
OBJECT_ID      = 2026-004T
CENTER_NAME    = EARTH
REF_FRAME      = TEME
TIME_SYSTEM    = UTC
MEAN_ELEMENT_THEORY = SGP/SGP4

EPOCH          = 2026-02-06T05:42:40.049856
MEAN_MOTION    = 14.87843018
ECCENTRICITY   = .00045105
INCLINATION    = 97.7982
RA_OF_ASC_NODE = 37.9700
ARG_OF_PERICENTER = 187.5668
MEAN_ANOMALY   = 172.5481

EPHEMERIS_TYPE = 0
CLASSIFICATION_TYPE = U
NORAD_CAT_ID   = 67380
ELEMENT_SET_NO = 999
REV_AT_EPOCH   = 381
BSTAR          = .39761868E-3
MEAN_MOTION_DOT = .3582E-4
MEAN_MOTION_DDOT = 0

CCSDS_OMM_VERS = 2.0
CREATION_DATE  = 
ORIGINATOR     = 

OBJECT_NAME    = AETHER-10
OBJECT_ID      = 2026-004U
CENTER_NAME    = EARTH
REF_FRAME      = TEME
TIME_SYSTEM    = UTC
MEAN_ELEMENT_THEORY = SGP/SGP4

EPOCH          = 2026-02-06T02:25:58.628064
MEAN_MOTION    = 14.87251054
ECCENTRICITY   = .00031664
INCLINATION    = 97.8017
RA_OF_ASC_NODE = 37.8505
ARG_OF_PERICENTER = 142.3540
MEAN_ANOMALY   = 217.7899

EPHEMERIS_TYPE = 0
CLASSIFICATION_TYPE = U
NORAD_CAT_ID   = 67381
ELEMENT_SET_NO = 999
REV_AT_EPOCH   = 379
BSTAR          = -.27452089E-1
MEAN_MOTION_DOT = -.238932E-2
MEAN_MOTION_DDOT = 0

